id,spkid,full_name,pdes,name,prefix,neo,pha,H,diameter,albedo,diameter_sigma,orbit_id,epoch,epoch_mjd,epoch_cal,equinox,e,a,q,i,om,w,ma,ad,n,tp,tp_cal,per,per_y,moid,moid_ld,sigma_e,sigma_a,sigma_q,sigma_i,sigma_om,sigma_w,sigma_ma,sigma_ad,sigma_n,sigma_tp,sigma_per,class,rms
a0001768,2001768,  1768 Appenzella (1965 SA),1768,Appenzella,,N,N,12.6,20.221,0.032,0.129,JPL 30,2459000.5,59000,20200531,J2000,0.179324573,2.4503622,2.010952045,3.254408426,12.34965208,20.14142119,72.2073661,2.889772355,0.256955932,2458719.489,20190823.99,1401.018446,3.835779456,1.0172,395.863724,4.30E-08,8.27E-09,1.04E-07,4.19E-06,5.86E-05,5.95E-05,8.58E-06,9.75E-09,1.30E-09,3.35E-05,7.09E-06,MBA,0.46701
a0001769,2001769,  1769 Carlostorres (1966 QP),1769,Carlostorres,,N,N,13.4,5.583,0.392,0.311,JPL 33,2459000.5,59000,20200531,J2000,0.142101824,2.178358977,1.868810194,1.588319227,319.2323662,24.3593652,262.6199229,2.48790776,0.306556055,2459318.158,20210413.66,1174.336613,3.215158421,0.861034,335.0886018,2.88E-08,5.22E-09,6.41E-08,3.08E-06,8.58E-05,8.62E-05,9.87E-06,5.96E-09,1.10E-09,3.28E-05,4.22E-06,MBA,0.46438
a0001770,2001770,  1770 Schlesinger (1967 JR),1770,Schlesinger,,N,N,12,10.614,0.207,0.092,JPL 35,2459000.5,59000,20200531,J2000,0.061136433,2.45727639,2.307047278,5.29257771,21.91024597,39.76173088,98.40835382,2.607505502,0.255872176,2458615.9,20190512.4,1406.95251,3.852026038,1.32188,514.4360396,2.75E-08,6.72E-09,6.66E-08,3.31E-06,3.84E-05,5.14E-05,3.38E-05,7.13E-09,1.05E-09,0.00013171,5.77E-06,MBA,0.40068
a0001771,2001771,  1771 Makover (1968 BD),1771,Makover,,N,N,10.4,46.886,0.072,0.293,JPL 36,2459000.5,59000,20200531,J2000,0.1726751,3.128882391,2.588602312,11.24504037,86.33209022,316.4308358,237.8348774,3.66916247,0.178082078,2459686.505,20220417,2021.53975,5.534674197,1.61187,627.2914479,4.22E-08,1.50E-08,1.31E-07,4.18E-06,2.23E-05,2.50E-05,1.37E-05,1.76E-08,1.28E-09,7.96E-05,1.45E-05,MBA,0.40757
a0001772,2001772,  1772 Gagarin (1968 CB),1772,Gagarin,,N,N,12.6,9.634,0.164,0.644,JPL 28,2459000.5,59000,20200531,J2000,0.104480578,2.527370711,2.263309557,5.742075734,88.17478276,93.47956358,335.6090682,2.791431864,0.245301753,2459099.932,20200907.43,1467.580218,4.018015656,1.27464,496.0516488,7.82E-08,8.09E-09,1.98E-07,3.99E-06,3.89E-05,4.70E-05,3.00E-05,8.93E-09,1.18E-09,0.0001222,7.04E-06,MBA,0.40912
a0001773,2001773,  1773 Rumpelstilz (1968 HE),1773,Rumpelstilz,,N,N,11.8,7.08,0.543,0.188,JPL 32,2459000.5,59000,20200531,J2000,0.126753899,2.437230505,2.128302036,5.399622112,74.76754171,169.3001853,216.8986003,2.746158974,0.259035428,2459552.939,20211204.44,1389.771287,3.804986411,1.11528,434.0335176,3.33E-08,7.06E-09,8.06E-08,3.69E-06,3.67E-05,3.95E-05,1.61E-05,7.96E-09,1.13E-09,6.29E-05,6.04E-06,MBA,0.44762
a0001774,2001774,  1774 Kulikov (1968 UG1),1774,Kulikov,,N,N,12.1,10.547,0.159,0.222,JPL 35,2459000.5,59000,20200531,J2000,0.068601419,2.877500783,2.680100145,1.855249275,175.1496969,250.3888867,191.5115915,3.07490142,0.201920726,2459834.929,20220912.43,1782.877904,4.881253672,1.69428,659.3629476,3.36E-08,1.07E-08,9.59E-08,3.63E-06,0.00010665,0.0001097,2.60E-05,1.14E-08,1.13E-09,0.00012961,9.95E-06,MBA,0.44832
a0001775,2001775,  1775 Zimmerwald (1969 JA),1775,Zimmerwald,,N,N,12.1,10.232,0.244,0.088,JPL 26,2459000.5,59000,20200531,J2000,0.186713929,2.602421103,2.116512833,12.55291274,195.8986597,84.61638478,23.49926925,3.088329372,0.23476736,2458900.404,20200220.9,1533.432928,4.198310548,1.14529,445.7125093,3.14E-08,9.74E-09,8.49E-08,5.84E-06,1.54E-05,2.24E-05,1.68E-05,1.16E-08,1.32E-09,7.11E-05,8.61E-06,MBA,0.45993
a0001776,2001776,  1776 Kuiper (2520 P-L),1776,Kuiper,,N,N,11.2,39.952,0.033,0.432,JPL 36,2459000.5,59000,20200531,J2000,0.016549537,3.102062716,3.050725016,9.484637654,176.4469136,312.8815127,210.5590308,3.153400417,0.180396544,2459828.903,20220906.4,1995.603642,5.463665002,2.06827,804.9086359,3.38E-08,1.43E-08,1.06E-07,4.21E-06,2.25E-05,0.00012724,0.0001251,1.46E-08,1.25E-09,0.0006932,1.38E-05,MBA,0.46956
a0001777,2001777,  1777 Gehrels (4007 P-L),1777,Gehrels,,N,N,11.6,11.86,0.244,0.184,JPL 40,2459000.5,59000,20200531,J2000,0.018479266,2.625418834,2.576903021,3.147402834,334.5398364,135.225863,265.1146105,2.673934648,0.231689408,2459410.037,20210714.54,1553.804309,4.254084351,1.59444,620.5082148,3.45E-08,8.76E-09,8.95E-08,4.14E-06,6.41E-05,0.00013211,0.00011697,8.93E-09,1.16E-09,0.00050556,7.78E-06,MBA,0.41977
a0001778,2001778,  1778 Alfven (4506 P-L),1778,Alfven,,N,N,11.8,20.623,0.095,0.24,JPL 40,2459000.5,59000,20200531,J2000,0.128481853,3.146233807,2.741999856,2.474204051,106.2372547,136.4144422,358.8241361,3.550467758,0.176610933,2459007.158,20200606.66,2038.378908,5.580777298,1.72976,673.1706992,3.34E-08,1.37E-08,1.07E-07,3.70E-06,9.23E-05,9.35E-05,1.52E-05,1.55E-08,1.16E-09,8.62E-05,1.33E-05,MBA,0.44692
a0001779,2001779,  1779 Parana (1950 LZ),1779,Parana,,N,N,14.1,4.085,0.221,0.223,JPL 36,2459000.5,59000,20200531,J2000,0.161174644,2.175316156,1.824710349,0.898896585,254.4236291,11.68880153,290.9675681,2.525921962,0.307199494,2459225.215,20210110.72,1171.87693,3.208424176,0.808823,314.7696469,2.87E-08,4.95E-09,6.40E-08,2.88E-06,0.00020748,0.0002078,1.34E-05,5.74E-09,1.05E-09,4.38E-05,4.00E-06,MBA,0.44085
a0001780,2001780,  1780 Kippes (A906 RA),1780,Kippes,,N,N,10.7,28.164,0.126,0.241,JPL 28,2459000.5,59000,20200531,J2000,0.054902644,3.015656312,2.850088806,9.005144178,290.9809057,340.5326997,335.8717324,3.181223818,0.188205065,2459128.702,20201006.2,1912.80718,5.236980644,1.83544,714.2981848,3.42E-08,1.26E-08,1.05E-07,4.03E-06,2.74E-05,5.08E-05,4.41E-05,1.33E-08,1.18E-09,0.00023454,1.20E-05,MBA,0.41474
a0001781,2001781,  1781 Van Biesbroeck (A906 UB),1781,Van Biesbroeck,,N,N,12.9,8.5,0.203,0.126,JPL 32,2459000.5,59000,20200531,J2000,0.107985785,2.395131779,2.136491592,6.947843585,44.62210688,342.4632367,237.1500265,2.653771965,0.265894867,2459462.525,20210905.02,1353.918575,3.706827036,1.14251,444.6306167,3.87E-08,7.05E-09,9.33E-08,4.02E-06,3.13E-05,3.55E-05,1.75E-05,7.82E-09,1.17E-09,6.66E-05,5.98E-06,MBA,0.44707
a0001782,2001782,  1782 Schneller (1931 TL1),1782,Schneller,,N,N,11.8,21.872,0.112,0.436,JPL 36,2459000.5,59000,20200531,J2000,0.153554286,3.115882016,2.637424979,1.54462737,157.3985313,106.622649,122.206308,3.594339054,0.179197756,2458318.537,20180719.04,2008.953728,5.500215546,1.62224,631.3271408,2.98E-08,1.28E-08,9.20E-08,3.90E-06,0.00013057,0.00013119,1.30E-05,1.47E-08,1.10E-09,7.18E-05,1.24E-05,MBA,0.46128
a0001783,2001783,  1783 Albitskij (1935 FJ),1783,Albitskij,,N,N,12,24.268,0.033,0.178,JPL 32,2459000.5,59000,20200531,J2000,0.132892703,2.661531492,2.307833379,11.5006738,189.4566841,315.5988381,250.647109,3.015229605,0.226989966,2459482.252,20210924.75,1585.973187,4.342157938,1.33302,518.7713934,3.73E-08,1.02E-08,9.77E-08,4.45E-06,1.74E-05,2.38E-05,1.91E-05,1.15E-08,1.30E-09,8.59E-05,9.08E-06,MBA,0.4414
a0001784,2001784,  1784 Benguella (1935 MG),1784,Benguella,,N,N,12.2,10.48,0.237,0.1,JPL 36,2459000.5,59000,20200531,J2000,0.132900916,2.404321421,2.084784901,1.47263815,95.2692633,185.0062859,279.6581912,2.72385794,0.264371896,2459304.397,20210330.9,1361.718116,3.728181017,1.06832,415.7580944,2.95E-08,6.90E-09,7.23E-08,3.19E-06,0.00012245,0.00012327,1.68E-05,7.81E-09,1.14E-09,6.42E-05,5.86E-06,MBA,0.42371
a0001785,2001785,  1785 Wurm (1941 CD),1785,Wurm,,N,N,12.6,,,,JPL 35,2459000.5,59000,20200531,J2000,0.069394327,2.235733681,2.080586447,3.77495581,283.2888986,246.5855255,236.8466675,2.390880914,0.29483156,2459418.207,20210722.71,1221.036175,3.343014854,1.08997,424.1836249,3.57E-08,5.85E-09,7.85E-08,2.98E-06,5.78E-05,6.22E-05,2.42E-05,6.26E-09,1.16E-09,8.25E-05,4.79E-06,MBA,0.43945
a0001786,2001786,  1786 Raahe (1948 TL),1786,Raahe,,N,N,11,25.532,0.075,0.523,JPL 38,2459000.5,59000,20200531,J2000,0.11190062,3.017714565,2.680030435,10.4361572,16.302415,348.0342511,239.6805453,3.355398695,0.188012548,2459640.454,20220301.95,1914.765816,5.242343095,1.6795,653.611015,4.50E-08,1.43E-08,1.38E-07,4.78E-06,2.03E-05,2.60E-05,1.76E-05,1.59E-08,1.33E-09,9.55E-05,1.36E-05,MBA,0.45114
a0001787,2001787,  1787 Chiny (1950 SK),1787,Chiny,,N,N,11.3,19.9,0.093,0.196,JPL 37,2459000.5,59000,20200531,J2000,0.049153221,3.003036753,2.855427823,8.91580919,307.1622646,271.1878736,298.4351416,3.150645682,0.189392642,2459325.565,20210421.06,1900.813019,5.204142421,1.86578,726.1056026,3.70E-08,1.38E-08,1.15E-07,4.68E-06,2.38E-05,5.73E-05,5.39E-05,1.44E-08,1.30E-09,0.00028522,1.31E-05,MBA,0.42817
a0001788,2001788,  1788 Kiess (1952 OZ),1788,Kiess,,N,N,11.9,20.993,0.07,0.271,JPL 41,2459000.5,59000,20200531,J2000,0.153858672,3.118681502,2.638845307,0.681596876,161.9009545,143.894604,142.1217312,3.598517697,0.178956525,2458206.331,20180328.83,2011.661774,5.50762977,1.62387,631.9614879,3.03E-08,1.31E-08,9.20E-08,3.57E-06,0.00029979,0.00030004,1.26E-05,1.51E-08,1.13E-09,6.95E-05,1.27E-05,MBA,0.46388
a0001789,2001789,  1789 Dobrovolsky (1966 QC),1789,Dobrovolsky,,N,N,12.3,7.922,0.185,0.099,JPL 36,2459000.5,59000,20200531,J2000,0.18824189,2.21381254,1.797080283,1.976231152,102.0818543,214.9222087,134.6958696,2.630544797,0.299221509,2458550.346,20190307.85,1203.122065,3.293968692,0.784036,305.1232901,2.74E-08,4.78E-09,6.02E-08,3.56E-06,0.00010377,0.00010435,1.23E-05,5.68E-09,9.69E-10,4.05E-05,3.90E-06,MBA,0.41347
a0001790,2001790,  1790 Volkov (1967 ER),1790,Volkov,,N,N,12.4,7.087,0.511,0.093,JPL 40,2459000.5,59000,20200531,J2000,0.100970995,2.238175949,2.012185097,5.108589246,1.978302696,147.3691414,340.2402177,2.4641668,0.294349117,2459067.63,20200806.13,1223.037473,3.348494107,1.0249,398.860333,3.65E-08,5.54E-09,8.27E-08,3.57E-06,3.83E-05,4.17E-05,1.64E-05,6.10E-09,1.09E-09,5.59E-05,4.54E-06,MBA,0.41901
